[{"OBJECT_NAME":"YAOGAN-35 03C","OBJECT_ID":"2022-088E","EPOCH":"2026-03-09T11:20:59.130240","MEAN_MOTION":15.39002434,"ECCENTRICITY":0.00029739,"INCLINATION":34.9967,"RA_OF_ASC_NODE":77.5598,"ARG_OF_PERICENTER":203.8466,"MEAN_ANOMALY":156.2116,"EPHEMERIS_TYPE":0,"CLASSIFICATION_TYPE":"U","NORAD_CAT_ID":53320,"ELEMENT_SET_NO":999,"REV_AT_EPOCH":20153,"BSTAR":0.00082360226,"MEAN_MOTION_DOT":0.00032803,"MEAN_MOTION_DDOT":0},{"OBJECT_NAME":"STARLINK-36330","OBJECT_ID":"2026-026S","EPOCH":"2026-03-09T22:00:01.999584","MEAN_MOTION":15.4909485,"ECCENTRICITY":0.00019244,"INCLINATION":97.2845,"RA_OF_ASC_NODE":123.5221,"ARG_OF_PERICENTER":87.437,"MEAN_ANOMALY":168.7589,"EPHEMERIS_TYPE":0,"CLASSIFICATION_TYPE":"U","NORAD_CAT_ID":67737,"ELEMENT_SET_NO":999,"REV_AT_EPOCH":535,"BSTAR":-0.039487323,"MEAN_MOTION_DOT":-0.01922252,"MEAN_MOTION_DDOT":0}]
